IRIDIUM 159             
1 43578U 18061K   24308.89479600 -.00000069  00000+0 -31862-4 0  9993
2 43578  86.3921 303.3890 0001995  89.5991 270.5433 14.34217305328770
IRIDIUM 180             
1 43922U 19002A   24309.31290362  .00000814  00000+0  28353-3 0  9992
2 43922  86.3982 240.0532 0002139  83.0880 277.0559 14.34218499304485
IRIDIUM 176             
1 43923U 19002B   24308.92741551  .00005738  00000+0  90509-3 0  9992
2 43923  86.6112 240.2241 0002194  96.7056 263.4411 14.72276341312409
IRIDIUM 168             
1 43924U 19002C   24308.88794340  .00000454  00000+0  15520-3 0  9992
2 43924  86.3985 240.2910 0002084  86.4739 273.6695 14.34219367304366
IRIDIUM 173             
1 43925U 19002D   24308.94501581  .00000055  00000+0  12445-4 0  9994
2 43925  86.3983 240.1807 0002053  83.0463 277.0966 14.34217476304359
IRIDIUM 169             
1 43926U 19002E   24308.93242112  .00002051  00000+0  66388-3 0  9998
2 43926  86.4191 271.8195 0003826 102.5879 257.5747 14.38607341305360
IRIDIUM 172             
1 43927U 19002F   24309.28754294  .00001736  00000+0  61285-3 0  9997
2 43927  86.3982 240.0437 0002078  81.1967 278.9464 14.34216456304410
IRIDIUM 175             
1 43928U 19002G   24309.19386784  .00005986  00000+0  94459-3 0  9993
2 43928  86.1556 205.3935 0003080  76.3180 283.8379 14.72255888312435
